<?xml version="1.0" encoding="UTF-8"?>
<ndm xmlns:xsi="http://www.w3.org/2001/XMLSchema-instance" xsi:noNamespaceSchemaLocation="https://sanaregistry.org/r/ndmxml_unqualified/ndmxml-2.0.0-master-2.0.xsd">
<omm id="CCSDS_OMM_VERS" version="2.0">
<header><CREATION_DATE/><ORIGINATOR/></header><body><segment><metadata><OBJECT_NAME>ORBCOMM-X</OBJECT_NAME><OBJECT_ID>1991-050C</OBJECT_ID><CENTER_NAME>EARTH</CENTER_NAME><REF_FRAME>TEME</REF_FRAME><TIME_SYSTEM>UTC</TIME_SYSTEM><MEAN_ELEMENT_THEORY>SGP4</MEAN_ELEMENT_THEORY></metadata><data><meanElements><EPOCH>2025-10-21T18:11:24.140256</EPOCH><MEAN_MOTION>14.43371400</MEAN_MOTION><ECCENTRICITY>.00042011</ECCENTRICITY><INCLINATION>98.3298</INCLINATION><RA_OF_ASC_NODE>358.6965</RA_OF_ASC_NODE><ARG_OF_PERICENTER>148.4514</ARG_OF_PERICENTER><MEAN_ANOMALY>211.6930</MEAN_ANOMALY></meanElements><tleParameters><EPHEMERIS_TYPE>0</EPHEMERIS_TYPE><CLASSIFICATION_TYPE>U</CLASSIFICATION_TYPE><NORAD_CAT_ID>21576</NORAD_CAT_ID><ELEMENT_SET_NO>999</ELEMENT_SET_NO><REV_AT_EPOCH>80037</REV_AT_EPOCH><BSTAR>.20008709E-3</BSTAR><MEAN_MOTION_DOT>.632E-5</MEAN_MOTION_DOT><MEAN_MOTION_DDOT>0</MEAN_MOTION_DDOT></tleParameters></data></segment></body></omm>
<omm id="CCSDS_OMM_VERS" version="2.0">
<header><CREATION_DATE/><ORIGINATOR/></header><body><segment><metadata><OBJECT_NAME>ORBCOMM FM01</OBJECT_NAME><OBJECT_ID>1995-017A</OBJECT_ID><CENTER_NAME>EARTH</CENTER_NAME><REF_FRAME>TEME</REF_FRAME><TIME_SYSTEM>UTC</TIME_SYSTEM><MEAN_ELEMENT_THEORY>SGP4</MEAN_ELEMENT_THEORY></metadata><data><meanElements><EPOCH>2025-10-21T22:43:00.281856</EPOCH><MEAN_MOTION>14.91919226</MEAN_MOTION><ECCENTRICITY>.00021144</ECCENTRICITY><INCLINATION>69.9599</INCLINATION><RA_OF_ASC_NODE>117.6877</RA_OF_ASC_NODE><ARG_OF_PERICENTER>176.9068</ARG_OF_PERICENTER><MEAN_ANOMALY>183.2101</MEAN_ANOMALY></meanElements><tleParameters><EPHEMERIS_TYPE>0</EPHEMERIS_TYPE><CLASSIFICATION_TYPE>U</CLASSIFICATION_TYPE><NORAD_CAT_ID>23545</NORAD_CAT_ID><ELEMENT_SET_NO>999</ELEMENT_SET_NO><REV_AT_EPOCH>63140</REV_AT_EPOCH><BSTAR>.96414446E-3</BSTAR><MEAN_MOTION_DOT>.9697E-4</MEAN_MOTION_DOT><MEAN_MOTION_DDOT>0</MEAN_MOTION_DDOT></tleParameters></data></segment></body></omm>
<omm id="CCSDS_OMM_VERS" version="2.0">
<header><CREATION_DATE/><ORIGINATOR/></header><body><segment><metadata><OBJECT_NAME>ORBCOMM FM02</OBJECT_NAME><OBJECT_ID>1995-017B</OBJECT_ID><CENTER_NAME>EARTH</CENTER_NAME><REF_FRAME>TEME</REF_FRAME><TIME_SYSTEM>UTC</TIME_SYSTEM><MEAN_ELEMENT_THEORY>SGP4</MEAN_ELEMENT_THEORY></metadata><data><meanElements><EPOCH>2025-10-21T22:28:03.765216</EPOCH><MEAN_MOTION>14.93166662</MEAN_MOTION><ECCENTRICITY>.00034199</ECCENTRICITY><INCLINATION>69.9617</INCLINATION><RA_OF_ASC_NODE>136.6193</RA_OF_ASC_NODE><ARG_OF_PERICENTER>157.5806</ARG_OF_PERICENTER><MEAN_ANOMALY>202.5500</MEAN_ANOMALY></meanElements><tleParameters><EPHEMERIS_TYPE>0</EPHEMERIS_TYPE><CLASSIFICATION_TYPE>U</CLASSIFICATION_TYPE><NORAD_CAT_ID>23546</NORAD_CAT_ID><ELEMENT_SET_NO>999</ELEMENT_SET_NO><REV_AT_EPOCH>63106</REV_AT_EPOCH><BSTAR>.11929375E-2</BSTAR><MEAN_MOTION_DOT>.12409E-3</MEAN_MOTION_DOT><MEAN_MOTION_DDOT>0</MEAN_MOTION_DDOT></tleParameters></data></segment></body></omm>
<omm id="CCSDS_OMM_VERS" version="2.0">
<header><CREATION_DATE/><ORIGINATOR/></header><body><segment><metadata><OBJECT_NAME>ORBCOMM FM08</OBJECT_NAME><OBJECT_ID>1997-084A</OBJECT_ID><CENTER_NAME>EARTH</CENTER_NAME><REF_FRAME>TEME</REF_FRAME><TIME_SYSTEM>UTC</TIME_SYSTEM><MEAN_ELEMENT_THEORY>SGP4</MEAN_ELEMENT_THEORY></metadata><data><meanElements><EPOCH>2025-10-21T21:20:18.463776</EPOCH><MEAN_MOTION>14.46293642</MEAN_MOTION><ECCENTRICITY>.00068164</ECCENTRICITY><INCLINATION>45.0114</INCLINATION><RA_OF_ASC_NODE>119.4473</RA_OF_ASC_NODE><ARG_OF_PERICENTER>167.2927</ARG_OF_PERICENTER><MEAN_ANOMALY>192.8098</MEAN_ANOMALY></meanElements><tleParameters><EPHEMERIS_TYPE>0</EPHEMERIS_TYPE><CLASSIFICATION_TYPE>U</CLASSIFICATION_TYPE><NORAD_CAT_ID>25112</NORAD_CAT_ID><ELEMENT_SET_NO>999</ELEMENT_SET_NO><REV_AT_EPOCH>45971</REV_AT_EPOCH><BSTAR>.80212235E-3</BSTAR><MEAN_MOTION_DOT>.2759E-4</MEAN_MOTION_DOT><MEAN_MOTION_DDOT>0</MEAN_MOTION_DDOT></tleParameters></data></segment></body></omm>
<omm id="CCSDS_OMM_VERS" version="2.0">
<header><CREATION_DATE/><ORIGINATOR/></header><body><segment><metadata><OBJECT_NAME>ORBCOMM FM10</OBJECT_NAME><OBJECT_ID>1997-084B</OBJECT_ID><CENTER_NAME>EARTH</CENTER_NAME><REF_FRAME>TEME</REF_FRAME><TIME_SYSTEM>UTC</TIME_SYSTEM><MEAN_ELEMENT_THEORY>SGP4</MEAN_ELEMENT_THEORY></metadata><data><meanElements><EPOCH>2025-10-21T21:20:50.932032</EPOCH><MEAN_MOTION>14.46070014</MEAN_MOTION><ECCENTRICITY>.00053118</ECCENTRICITY><INCLINATION>45.0126</INCLINATION><RA_OF_ASC_NODE>122.0543</RA_OF_ASC_NODE><ARG_OF_PERICENTER>134.7975</ARG_OF_PERICENTER><MEAN_ANOMALY>225.3310</MEAN_ANOMALY></meanElements><tleParameters><EPHEMERIS_TYPE>0</EPHEMERIS_TYPE><CLASSIFICATION_TYPE>U</CLASSIFICATION_TYPE><NORAD_CAT_ID>25113</NORAD_CAT_ID><ELEMENT_SET_NO>999</ELEMENT_SET_NO><REV_AT_EPOCH>63485</REV_AT_EPOCH><BSTAR>.77782825E-3</BSTAR><MEAN_MOTION_DOT>.2658E-4</MEAN_MOTION_DOT><MEAN_MOTION_DDOT>0</MEAN_MOTION_DDOT></tleParameters></data></segment></body></omm>
<omm id="CCSDS_OMM_VERS" version="2.0">
<header><CREATION_DATE/><ORIGINATOR/></header><body><segment><metadata><OBJECT_NAME>ORBCOMM FM11</OBJECT_NAME><OBJECT_ID>1997-084C</OBJECT_ID><CENTER_NAME>EARTH</CENTER_NAME><REF_FRAME>TEME</REF_FRAME><TIME_SYSTEM>UTC</TIME_SYSTEM><MEAN_ELEMENT_THEORY>SGP4</MEAN_ELEMENT_THEORY></metadata><data><meanElements><EPOCH>2025-10-21T21:59:18.482496</EPOCH><MEAN_MOTION>14.45805080</MEAN_MOTION><ECCENTRICITY>.0006101</ECCENTRICITY><INCLINATION>45.0112</INCLINATION><RA_OF_ASC_NODE>122.7917</RA_OF_ASC_NODE><ARG_OF_PERICENTER>136.0720</ARG_OF_PERICENTER><MEAN_ANOMALY>224.0618</MEAN_ANOMALY></meanElements><tleParameters><EPHEMERIS_TYPE>0</EPHEMERIS_TYPE><CLASSIFICATION_TYPE>U</CLASSIFICATION_TYPE><NORAD_CAT_ID>25114</NORAD_CAT_ID><ELEMENT_SET_NO>999</ELEMENT_SET_NO><REV_AT_EPOCH>45981</REV_AT_EPOCH><BSTAR>.60999914E-3</BSTAR><MEAN_MOTION_DOT>.2041E-4</MEAN_MOTION_DOT><MEAN_MOTION_DDOT>0</MEAN_MOTION_DDOT></tleParameters></data></segment></body></omm>
<omm id="CCSDS_OMM_VERS" version="2.0">
<header><CREATION_DATE/><ORIGINATOR/></header><body><segment><metadata><OBJECT_NAME>ORBCOMM FM12</OBJECT_NAME><OBJECT_ID>1997-084D</OBJECT_ID><CENTER_NAME>EARTH</CENTER_NAME><REF_FRAME>TEME</REF_FRAME><TIME_SYSTEM>UTC</TIME_SYSTEM><MEAN_ELEMENT_THEORY>SGP4</MEAN_ELEMENT_THEORY></metadata><data><meanElements><EPOCH>2025-10-21T22:42:18.291456</EPOCH><MEAN_MOTION>14.45826171</MEAN_MOTION><ECCENTRICITY>.00051867</ECCENTRICITY><INCLINATION>45.0118</INCLINATION><RA_OF_ASC_NODE>122.3863</RA_OF_ASC_NODE><ARG_OF_PERICENTER>133.2939</ARG_OF_PERICENTER><MEAN_ANOMALY>226.8346</MEAN_ANOMALY></meanElements><tleParameters><EPHEMERIS_TYPE>0</EPHEMERIS_TYPE><CLASSIFICATION_TYPE>U</CLASSIFICATION_TYPE><NORAD_CAT_ID>25115</NORAD_CAT_ID><ELEMENT_SET_NO>999</ELEMENT_SET_NO><REV_AT_EPOCH>45961</REV_AT_EPOCH><BSTAR>.7103313E-3</BSTAR><MEAN_MOTION_DOT>.2402E-4</MEAN_MOTION_DOT><MEAN_MOTION_DDOT>0</MEAN_MOTION_DDOT></tleParameters></data></segment></body></omm>
<omm id="CCSDS_OMM_VERS" version="2.0">
<header><CREATION_DATE/><ORIGINATOR/></header><body><segment><metadata><OBJECT_NAME>ORBCOMM FM09</OBJECT_NAME><OBJECT_ID>1997-084E</OBJECT_ID><CENTER_NAME>EARTH</CENTER_NAME><REF_FRAME>TEME</REF_FRAME><TIME_SYSTEM>UTC</TIME_SYSTEM><MEAN_ELEMENT_THEORY>SGP4</MEAN_ELEMENT_THEORY></metadata><data><meanElements><EPOCH>2025-10-21T22:05:52.326528</EPOCH><MEAN_MOTION>14.45685626</MEAN_MOTION><ECCENTRICITY>.00063753</ECCENTRICITY><INCLINATION>45.0123</INCLINATION><RA_OF_ASC_NODE>123.5733</RA_OF_ASC_NODE><ARG_OF_PERICENTER>123.3691</ARG_OF_PERICENTER><MEAN_ANOMALY>236.7772</MEAN_ANOMALY></meanElements><tleParameters><EPHEMERIS_TYPE>0</EPHEMERIS_TYPE><CLASSIFICATION_TYPE>U</CLASSIFICATION_TYPE><NORAD_CAT_ID>25116</NORAD_CAT_ID><ELEMENT_SET_NO>999</ELEMENT_SET_NO><REV_AT_EPOCH>45981</REV_AT_EPOCH><BSTAR>.69441833E-3</BSTAR><MEAN_MOTION_DOT>.2338E-4</MEAN_MOTION_DOT><MEAN_MOTION_DDOT>0</MEAN_MOTION_DDOT></tleParameters></data></segment></body></omm>

</ndm>
