ORBCOMM-X               
1 21576U 91050C   25294.75791829  .00000632  00000+0  20009-3 0  9990
2 21576  98.3298 358.6965 0004201 148.4514 211.6930 14.43371400800375
ORBCOMM FM01            
1 23545U 95017A   25294.94653104  .00009697  00000+0  96414-3 0  9992
2 23545  69.9599 117.6877 0002114 176.9068 183.2101 14.91919226631404
ORBCOMM FM02            
1 23546U 95017B   25294.93615469  .00012409  00000+0  11929-2 0  9996
2 23546  69.9617 136.6193 0003419 157.5806 202.5500 14.93166662631062
ORBCOMM FM08            
1 25112U 97084A   25294.88910259  .00002759  00000+0  80212-3 0  9991
2 25112  45.0114 119.4473 0006816 167.2927 192.8098 14.46293642459716
ORBCOMM FM10            
1 25113U 97084B   25294.88947838  .00002658  00000+0  77783-3 0  9992
2 25113  45.0126 122.0543 0005311 134.7975 225.3310 14.46070014634854
ORBCOMM FM11            
1 25114U 97084C   25294.91618614  .00002041  00000+0  61000-3 0  9995
2 25114  45.0112 122.7917 0006101 136.0720 224.0618 14.45805080459819
ORBCOMM FM12            
1 25115U 97084D   25294.94604504  .00002402  00000+0  71033-3 0  9990
2 25115  45.0118 122.3863 0005186 133.2939 226.8346 14.45826171459615
ORBCOMM FM09            
1 25116U 97084E   25294.92074452  .00002338  00000+0  69442-3 0  9991
2 25116  45.0123 123.5733 0006375 123.3691 236.7772 14.45685626459810
